IRNSS-1F                
1 41384U 16015A   19213.82617571  .00000146  00000-0  00000-0 0  9997
2 41384   2.6447 237.8528 0020335 191.0424 211.1432  1.00275339 12517
BEIDOU IGSO-6           
1 41434U 16021A   19214.05411176 -.00000141  00000-0  00000+0 0  9994
2 41434  56.5900  63.9515 0034771 199.3548 162.5692  1.00282212 12319
IRNSS-1G                
1 41469U 16027A   19213.93882868 -.00000349  00000-0  00000-0 0  9995
2 41469   2.6888 240.2491 0005928 212.7260 324.7852  1.00271328 12013
JCSAT 2B                
1 41471U 16028A   19213.87059035 -.00000179  00000-0  00000-0 0  9995
2 41471   0.0125  80.9372 0001750  48.8112 287.8326  1.00270026 11920
THAICOM 8               
1 41552U 16031A   19213.91677676 -.00000134  00000-0  00000-0 0  9992
2 41552   0.0729  52.3018 0002610  25.5385 280.8925  1.00270124 11534
INTELSAT 31 (IS-31)     
1 41581U 16035A   19214.15975444 -.00000165  00000-0  00000+0 0  9992
2 41581   0.0054 119.2623 0001486 116.8099  36.8231  1.00271278 11516
BEIDOU-2 G7             
1 41586U 16037A   19213.94713074 -.00000368  00000-0  00000-0 0  9990
2 41586   0.9410  45.3892 0005722  15.8443 340.5132  1.00268495 11603
ABS-2A (MONGOLSAT-1)    
1 41588U 16038A   19213.81961830 -.00000097  00000-0  00000-0 0  9993
2 41588   0.0098  70.6667 0002217 322.1492 287.0810  1.00268732 11526
EUTELSAT 117 WEST B     
1 41589U 16038B   19214.49062171 -.00000027  00000-0  00000+0 0  9991
2 41589   0.0103 215.0434 0000442 269.9358 245.4206  1.00272022 11533
BRISAT                  
1 41591U 16039A   19214.49584632 -.00000212  00000-0  00000+0 0  9992
2 41591   0.0174  79.1797 0001965  53.1790 147.4396  1.00270345 11468
ECHOSTAR 18             
1 41592U 16039B   19213.52041384 -.00000294  00000-0  00000+0 0  9998
2 41592   0.0172  85.5851 0001155  40.6231 309.5957  1.00270303 11447
MUOS-5                  
1 41622U 16041A   19213.42622887 -.00000129  00000-0  00000-0 0  9995
2 41622   7.9131 310.5651 0207119 209.4048 198.2212  1.00271544 11906
TIANTONG-1 1            
1 41725U 16048A   19213.96636773 -.00000326  00000-0  00000-0 0  9993
2 41725   3.4492 329.4282 0000409 190.9475 239.1841  1.00271866 11080
JCSAT-16                
1 41729U 16050A   19213.86254417 -.00000370  00000-0  00000-0 0  9999
2 41729   0.0475  91.7289 0002182 139.6883 153.2691  1.00270192 10873
INTELSAT 36 (IS-36)     
1 41747U 16053A   19214.14647634 -.00000038  00000-0  00000+0 0  9991
2 41747   0.0095  47.3944 0002324 310.9013  73.3656  1.00270917 10781
INTELSAT 33E (IS-33E)   
1 41748U 16053B   19214.47780157  .00000034  00000-0  00000+0 0  9991
2 41748   0.0129  62.2540 0001821  70.8107  49.7055  1.00271230 11044
INSAT-3DR               
1 41752U 16054A   19213.92056262 -.00000090  00000-0  00000-0 0  9993
2 41752   0.1210  99.2425 0010502 171.7366  84.6148  1.00270752 10629
GSAT-18                 
1 41793U 16060A   19214.48050588 -.00000091  00000-0  00000+0 0  9992
2 41793   0.0500 263.1629 0002865 179.1221 115.4346  1.00270252 10356
SKY MUSTER 2            
1 41794U 16060B   19214.42293019 -.00000260  00000-0  00000+0 0  9993
2 41794   0.0187 100.3791 0001455  27.0977 120.3030  1.00268962 10397
HIMAWARI-9              
1 41836U 16064A   19214.03105025 -.00000289  00000-0  00000+0 0  9991
2 41836   0.0239 340.0570 0000175 200.0331 282.1807  1.00271204 10128
SHIJIAN-17 (SJ-17)      
1 41838U 16065A   19213.94343106 -.00000277  00000-0  00000-0 0  9995
2 41838   0.8639  95.9289 0002003  14.5392 273.6110  1.00267877 10057
GOES 16                 
1 41866U 16071A   19214.30725538 -.00000263  00000-0  00000+0 0  9991
2 41866   0.0202 115.0209 0000088 336.2683 254.6995  1.00269124  9932
TIANLIAN 1-04           
1 41869U 16072A   19213.84973633 -.00000121  00000-0  00000-0 0  9998
2 41869   0.9708 283.4991 0015947 171.0258 238.6174  1.00273372 10120
WGS F8 (USA 272)        
1 41879U 16075A   19214.49567184 -.00000218  00000-0  00000+0 0  9990
2 41879   0.0128  71.5105 0000131  37.5433 169.9650  1.00271726  9743
FENGYUN 4A              
1 41882U 16077A   19214.23831205 -.00000345  00000-0  00000+0 0  9997
2 41882   0.0511  63.9011 0002577  90.4047 346.7411  1.00271173  9802
ECHOSTAR 19             
1 41893U 16079A   19213.47747740 -.00000150  00000-0  00000-0 0  9991
2 41893   0.0169  72.4743 0001156  54.7812 257.3182  1.00270870  9529
JCSAT-15                
1 41903U 16082A   19214.57328302 -.00000366  00000-0  00000+0 0  9996
2 41903   0.0230  95.9990 0001251  34.2347 137.0829  1.00267113  9603
STAR ONE D1             
1 41904U 16082B   19213.80297097 -.00000224  00000-0  00000-0 0  9992
2 41904   0.0049  21.8566 0002274  85.9467  47.3647  1.00272803  9592
TJS-2                   
1 41911U 17001A   19213.88243647 -.00000356  00000-0  00000-0 0  9998
2 41911   0.1915  94.5139 0005967 277.4724   3.4206  1.00272111  9543
SBIRS GEO-3 (USA 273)   
1 41937U 17004A   19214.07513561  .00000120  00000-0  00000+0 0  9993
2 41937   4.4299 312.1793 0002179 176.2559  49.5848  1.00271883  9427
HISPASAT 36W-1          
1 41942U 17006A   19213.77480017 -.00000257  00000-0  00000-0 0  9999
2 41942   0.0077  34.4907 0001112  96.0255  62.4772  1.00270744  9052
TELKOM 3S               
1 41944U 17007A   19213.84606500 -.00000376  00000-0  00000-0 0  9999
2 41944   0.0131  74.7523 0001784  47.1272 250.8516  1.00269721  8957
INTELSAT 32E (IS-32E)   
1 41945U 17007B   19214.17550389 -.00000283  00000-0  00000+0 0  9996
2 41945   0.0159  73.4428 0000261 256.2023   0.8166  1.00270211  9067
ECHOSTAR 23             
1 42070U 17014A   19213.44896764 -.00000291  00000-0  00000-0 0  9993
2 42070   0.0171  85.4389 0002113  40.9761 285.4917  1.00131538  8742
WGS F9 (USA 275)        
1 42075U 17016A   19213.83062476  .00000060  00000-0  00000-0 0  9991
2 42075   0.0116  76.0585 0000192 181.9217  47.9704  1.00271028  8718
SES-10                  
1 42432U 17017A   19213.23086875 -.00000284  00000-0  00000+0 0  9990
2 42432   0.0106  79.0797 0002714  60.8790 185.7831  1.00268663  8572
CHINASAT 16 (SJ-13)     
1 42662U 17018A   19214.22288150 -.00000366  00000-0  00000+0 0  9997
2 42662   0.0588  90.8274 0006345 133.1125 277.2642  1.00266696  8562
KOREASAT 7              
1 42691U 17023A   19214.05821185 -.00000376  00000-0  00000+0 0  9998
2 42691   0.0147  38.7842 0001789 106.2946 302.1165  1.00274274  8262
SGDC                    
1 42692U 17023B   19213.34779878 -.00000261  00000-0  00000+0 0  9994
2 42692   0.0098  56.7553 0002088  79.3013 223.9508  1.00270705  8261
GSAT-9                  
1 42695U 17024A   19214.05454795 -.00000300  00000-0  00000+0 0  9999
2 42695   0.1224 274.0599 0002146 209.7410 303.4578  1.00273506  8258
INMARSAT 5-F4           
1 42698U 17025A   19214.47710368  .00000060  00000-0  00000+0 0  9992
2 42698   0.0174  67.1401 0000610 227.6605 244.2134  1.00271500  8089
SES-15                  
1 42709U 17026A   19213.72219052  .00000047  00000-0  00000-0 0  9993
2 42709   0.0150  23.2168 0000245 126.2787 291.3572  1.00268672  8960
QZS-2  (MICHIBIKI-2)    
1 42738U 17028A   19213.49066639 -.00000148  00000-0  00000-0 0  9995
2 42738  43.5255 278.8988 0754925 269.5124  78.0723  1.00278715  7950
VIASAT-2                
1 42740U 17029A   19214.30830220 -.00000280  00000-0  00000+0 0  9991
2 42740   0.0179  84.4660 0000198 199.0042  68.2082  1.00271036  8012
EUTELSAT 172B           
1 42741U 17029B   19214.14117321 -.00000020  00000-0  00000+0 0  9996
2 42741   0.0280  98.8823 0000733 177.2623 257.1157  1.00271835  8529
GSAT-19                 
1 42747U 17031A   19213.47016596  .00000113  00000-0  00000-0 0  9995
2 42747   0.0592 266.9695 0005012 171.7616  88.1607  1.00269857  7940
ECHOSTAR 21             
1 42749U 17032A   19214.03718797  .00000057  00000-0  00000+0 0  9999
2 42749   6.1293 314.4560 0001823 182.5172 196.9938  1.00271834  7943
CHINASAT 9A (ZX 9A)     
1 42763U 17035A   19213.94670240 -.00000327  00000-0  00000-0 0  9999
2 42763   0.0639 260.4153 0002838 213.3219 278.7018  1.00274670  8474
BULGARIASAT-1           
1 42801U 17038A   19214.17903359 -.00000003  00000-0  00000+0 0  9991
2 42801   0.0034 233.5264 0002761 263.8898 239.3940  1.00271317  7738
HELLAS-SAT 3            
1 42814U 17040A   19214.21311069  .00000138  00000-0  00000+0 0  9992
2 42814   0.0469  46.4880 0002970  28.9141 350.8370  1.00268460  7700
GSAT-17                 
1 42815U 17040B   19213.88980191 -.00000271  00000-0  00000-0 0  9993
2 42815   0.0178 288.5610 0002070 327.3992 108.0679  1.00266561  7636
INTELSAT 35E (IS-35E)   
1 42818U 17041A   19213.85339277 -.00000251  00000-0  00000-0 0  9995
2 42818   0.0176 212.5524 0001428 259.6677 110.6761  1.00268495  7696
COSMOS 2520             
1 42907U 17046A   19213.46981701  .00000125  00000-0  00000-0 0  9990
2 42907   0.0248 114.1410 0000524 144.4602 265.2845  1.00272348  7211
TDRS 13                 
1 42915U 17047A   19213.78276454 -.00000106  00000-0  00000-0 0  9997
2 42915   6.0579 330.3702 0014597  96.0277 154.0331  1.00271251  7165
QZS-3 (MICHIBIKI-3)     
1 42917U 17048A   19213.84510591 -.00000362  00000-0  00000-0 0  9994
2 42917   0.0587 223.4408 0001247 284.1326 233.8554  1.00269394  7076
AMAZONAS 5              
1 42934U 17053A   19214.16655885 -.00000297  00000-0  00000+0 0  9997
2 42934   0.0365 312.4278 0002105 158.6198 198.3528  1.00271330  6943
ASIASAT 9               
1 42942U 17057A   19213.84414632 -.00000373  00000-0  00000-0 0  9993
2 42942   0.0074  90.2546 0001946  35.4974 250.3916  1.00271038  6769
INTELSAT 37E (IS-37E)   
1 42950U 17059A   19213.78456546 -.00000154  00000-0  00000-0 0  9994
2 42950   0.0265  99.1383 0002728  45.4385  69.9667  1.00269183  6870
BSAT-4A                 
1 42951U 17059B   19213.94716370 -.00000364  00000-0  00000-0 0  9990
2 42951   0.0404 348.1703 0002662 100.4943 312.4070  1.00270136  6625
